CCSDS_OMM_VERS = 2.0
CREATION_DATE  = 
ORIGINATOR     = 

OBJECT_NAME    = AQUA
OBJECT_ID      = 2002-022A
CENTER_NAME    = EARTH
REF_FRAME      = TEME
TIME_SYSTEM    = UTC
MEAN_ELEMENT_THEORY = SGP/SGP4

EPOCH          = 2026-03-21T22:28:43.057344
MEAN_MOTION    = 14.62004174
ECCENTRICITY   = .00008574
INCLINATION    = 98.4196
RA_OF_ASC_NODE = 48.5265
ARG_OF_PERICENTER = 115.3892
MEAN_ANOMALY   = 312.2693

EPHEMERIS_TYPE = 0
CLASSIFICATION_TYPE = U
NORAD_CAT_ID   = 27424
ELEMENT_SET_NO = 999
REV_AT_EPOCH   = 27052
BSTAR          = .20394899E-3
MEAN_MOTION_DOT = .973E-5
MEAN_MOTION_DDOT = 0

CCSDS_OMM_VERS = 2.0
CREATION_DATE  = 
ORIGINATOR     = 

OBJECT_NAME    = CZ-4B R/B
OBJECT_ID      = 2002-024C
CENTER_NAME    = EARTH
REF_FRAME      = TEME
TIME_SYSTEM    = UTC
MEAN_ELEMENT_THEORY = SGP/SGP4

EPOCH          = 2026-03-21T21:46:22.792800
MEAN_MOTION    = 14.14549836
ECCENTRICITY   = .00498476
INCLINATION    = 98.8811
RA_OF_ASC_NODE = 134.2509
ARG_OF_PERICENTER = 349.5465
MEAN_ANOMALY   = 183.9731

EPHEMERIS_TYPE = 0
CLASSIFICATION_TYPE = U
NORAD_CAT_ID   = 27432
ELEMENT_SET_NO = 999
REV_AT_EPOCH   = 23096
BSTAR          = .42254011E-4
MEAN_MOTION_DOT = .37E-6
MEAN_MOTION_DDOT = 0

CCSDS_OMM_VERS = 2.0
CREATION_DATE  = 
ORIGINATOR     = 

OBJECT_NAME    = MIDORI II (ADEOS-II)
OBJECT_ID      = 2002-056A
CENTER_NAME    = EARTH
REF_FRAME      = TEME
TIME_SYSTEM    = UTC
MEAN_ELEMENT_THEORY = SGP/SGP4

EPOCH          = 2026-03-21T20:16:03.306144
MEAN_MOTION    = 14.29293908
ECCENTRICITY   = .00010778
INCLINATION    = 98.7790
RA_OF_ASC_NODE = 39.4077
ARG_OF_PERICENTER = 27.2984
MEAN_ANOMALY   = 332.8254

EPHEMERIS_TYPE = 0
CLASSIFICATION_TYPE = U
NORAD_CAT_ID   = 27597
ELEMENT_SET_NO = 999
REV_AT_EPOCH   = 21203
BSTAR          = .13184884E-3
MEAN_MOTION_DOT = .29E-5
MEAN_MOTION_DDOT = 0

CCSDS_OMM_VERS = 2.0
CREATION_DATE  = 
ORIGINATOR     = 

OBJECT_NAME    = H-2A R/B
OBJECT_ID      = 2002-056E
CENTER_NAME    = EARTH
REF_FRAME      = TEME
TIME_SYSTEM    = UTC
MEAN_ELEMENT_THEORY = SGP/SGP4

EPOCH          = 2026-03-21T22:07:06.093120
MEAN_MOTION    = 14.33768436
ECCENTRICITY   = .0071141
INCLINATION    = 98.3224
RA_OF_ASC_NODE = 40.8230
ARG_OF_PERICENTER = 124.5576
MEAN_ANOMALY   = 304.7694

EPHEMERIS_TYPE = 0
CLASSIFICATION_TYPE = U
NORAD_CAT_ID   = 27601
ELEMENT_SET_NO = 999
REV_AT_EPOCH   = 21586
BSTAR          = .10957584E-3
MEAN_MOTION_DOT = .272E-5
MEAN_MOTION_DDOT = 0

CCSDS_OMM_VERS = 2.0
CREATION_DATE  = 
ORIGINATOR     = 

OBJECT_NAME    = CZ-4B R/B
OBJECT_ID      = 2003-049C
CENTER_NAME    = EARTH
REF_FRAME      = TEME
TIME_SYSTEM    = UTC
MEAN_ELEMENT_THEORY = SGP/SGP4

EPOCH          = 2026-03-21T21:34:53.977440
MEAN_MOTION    = 14.55031002
ECCENTRICITY   = .00478554
INCLINATION    = 98.6891
RA_OF_ASC_NODE = 76.2842
ARG_OF_PERICENTER = 193.1270
MEAN_ANOMALY   = 166.8684

EPHEMERIS_TYPE = 0
CLASSIFICATION_TYPE = U
NORAD_CAT_ID   = 28059
ELEMENT_SET_NO = 999
REV_AT_EPOCH   = 18837
BSTAR          = .93882234E-4
MEAN_MOTION_DOT = .359E-5
MEAN_MOTION_DDOT = 0

CCSDS_OMM_VERS = 2.0
CREATION_DATE  = 
ORIGINATOR     = 

OBJECT_NAME    = CZ-2C R/B
OBJECT_ID      = 2004-012C
CENTER_NAME    = EARTH
REF_FRAME      = TEME
TIME_SYSTEM    = UTC
MEAN_ELEMENT_THEORY = SGP/SGP4

EPOCH          = 2026-03-21T15:04:29.285472
MEAN_MOTION    = 15.65897272
ECCENTRICITY   = .00129323
INCLINATION    = 97.7189
RA_OF_ASC_NODE = 147.0630
ARG_OF_PERICENTER = 260.9266
MEAN_ANOMALY   = 99.0530

EPHEMERIS_TYPE = 0
CLASSIFICATION_TYPE = U
NORAD_CAT_ID   = 28222
ELEMENT_SET_NO = 999
REV_AT_EPOCH   = 20614
BSTAR          = .73544128E-3
MEAN_MOTION_DOT = .75469E-3
MEAN_MOTION_DDOT = 0

CCSDS_OMM_VERS = 2.0
CREATION_DATE  = 
ORIGINATOR     = 

OBJECT_NAME    = SL-16 R/B
OBJECT_ID      = 2004-021B
CENTER_NAME    = EARTH
REF_FRAME      = TEME
TIME_SYSTEM    = UTC
MEAN_ELEMENT_THEORY = SGP/SGP4

EPOCH          = 2026-03-21T18:15:51.588864
MEAN_MOTION    = 14.14593344
ECCENTRICITY   = .00046346
INCLINATION    = 70.9999
RA_OF_ASC_NODE = 207.1594
ARG_OF_PERICENTER = 354.7042
MEAN_ANOMALY   = 5.4030

EPHEMERIS_TYPE = 0
CLASSIFICATION_TYPE = U
NORAD_CAT_ID   = 28353
ELEMENT_SET_NO = 999
REV_AT_EPOCH   = 12454
BSTAR          = -.34027595E-4
MEAN_MOTION_DOT = -.113E-5
MEAN_MOTION_DDOT = 0

CCSDS_OMM_VERS = 2.0
CREATION_DATE  = 
ORIGINATOR     = 

OBJECT_NAME    = CZ-4B R/B
OBJECT_ID      = 2004-035C
CENTER_NAME    = EARTH
REF_FRAME      = TEME
TIME_SYSTEM    = UTC
MEAN_ELEMENT_THEORY = SGP/SGP4

EPOCH          = 2026-03-21T19:38:59.449632
MEAN_MOTION    = 15.29264015
ECCENTRICITY   = .00300979
INCLINATION    = 97.3474
RA_OF_ASC_NODE = 114.9160
ARG_OF_PERICENTER = 286.3685
MEAN_ANOMALY   = 73.4247

EPHEMERIS_TYPE = 0
CLASSIFICATION_TYPE = U
NORAD_CAT_ID   = 28415
ELEMENT_SET_NO = 999
REV_AT_EPOCH   = 18176
BSTAR          = .38221293E-3
MEAN_MOTION_DOT = .10927E-3
MEAN_MOTION_DDOT = 0

CCSDS_OMM_VERS = 2.0
CREATION_DATE  = 
ORIGINATOR     = 

OBJECT_NAME    = CZ-2C R/B
OBJECT_ID      = 2004-046B
CENTER_NAME    = EARTH
REF_FRAME      = TEME
TIME_SYSTEM    = UTC
MEAN_ELEMENT_THEORY = SGP/SGP4

EPOCH          = 2026-03-21T18:09:06.023808
MEAN_MOTION    = 14.26996055
ECCENTRICITY   = .01404349
INCLINATION    = 98.1979
RA_OF_ASC_NODE = 354.9888
ARG_OF_PERICENTER = 118.9547
MEAN_ANOMALY   = 242.5800

EPHEMERIS_TYPE = 0
CLASSIFICATION_TYPE = U
NORAD_CAT_ID   = 28480
ELEMENT_SET_NO = 999
REV_AT_EPOCH   = 11022
BSTAR          = .64688056E-4
MEAN_MOTION_DOT = .135E-5
MEAN_MOTION_DDOT = 0

CCSDS_OMM_VERS = 2.0
CREATION_DATE  = 
ORIGINATOR     = 

OBJECT_NAME    = ARIANE 5 R/B
OBJECT_ID      = 2004-049H
CENTER_NAME    = EARTH
REF_FRAME      = TEME
TIME_SYSTEM    = UTC
MEAN_ELEMENT_THEORY = SGP/SGP4

EPOCH          = 2026-03-21T21:26:46.376448
MEAN_MOTION    = 14.85286873
ECCENTRICITY   = .00831537
INCLINATION    = 98.2645
RA_OF_ASC_NODE = 249.8090
ARG_OF_PERICENTER = 312.0964
MEAN_ANOMALY   = 47.3199

EPHEMERIS_TYPE = 0
CLASSIFICATION_TYPE = U
NORAD_CAT_ID   = 28499
ELEMENT_SET_NO = 999
REV_AT_EPOCH   = 14760
BSTAR          = .89214031E-4
MEAN_MOTION_DOT = .749E-5
MEAN_MOTION_DDOT = 0

CCSDS_OMM_VERS = 2.0
CREATION_DATE  = 
ORIGINATOR     = 

OBJECT_NAME    = CZ-2D R/B
OBJECT_ID      = 2005-024B
CENTER_NAME    = EARTH
REF_FRAME      = TEME
TIME_SYSTEM    = UTC
MEAN_ELEMENT_THEORY = SGP/SGP4

EPOCH          = 2026-03-21T18:19:05.776320
MEAN_MOTION    = 15.61200388
ECCENTRICITY   = .00037194
INCLINATION    = 97.3584
RA_OF_ASC_NODE = 96.3614
ARG_OF_PERICENTER = 11.2669
MEAN_ANOMALY   = 348.8671

EPHEMERIS_TYPE = 0
CLASSIFICATION_TYPE = U
NORAD_CAT_ID   = 28738
ELEMENT_SET_NO = 999
REV_AT_EPOCH   = 14166
BSTAR          = .69650626E-3
MEAN_MOTION_DOT = .59126E-3
MEAN_MOTION_DDOT = 0

CCSDS_OMM_VERS = 2.0
CREATION_DATE  = 
ORIGINATOR     = 

OBJECT_NAME    = ALOS (DAICHI)
OBJECT_ID      = 2006-002A
CENTER_NAME    = EARTH
REF_FRAME      = TEME
TIME_SYSTEM    = UTC
MEAN_ELEMENT_THEORY = SGP/SGP4

EPOCH          = 2026-03-21T09:59:21.952320
MEAN_MOTION    = 14.69845399
ECCENTRICITY   = .00007026
INCLINATION    = 98.1240
RA_OF_ASC_NODE = 36.3145
ARG_OF_PERICENTER = 87.7130
MEAN_ANOMALY   = 272.4156

EPHEMERIS_TYPE = 0
CLASSIFICATION_TYPE = U
NORAD_CAT_ID   = 28931
ELEMENT_SET_NO = 999
REV_AT_EPOCH   = 7520
BSTAR          = .22916718E-3
MEAN_MOTION_DOT = .132E-4
MEAN_MOTION_DDOT = 0

